NORAD_CAT_ID,OBJECT_NAME,OBJECT_TYPE,EPOCH,MEAN_MOTION,ECCENTRICITY,INCLINATION,RA_OF_ASC_NODE,ARG_OF_PERICENTER,MEAN_ANOMALY,BSTAR,MEAN_MOTION_DOT,MEAN_MOTION_DDOT,TLE_LINE0,TLE_LINE1,TLE_LINE2,SEMIMAJOR_AXIS,PERIOD,APOGEE,PERIGEE,DECAYED
54095.0,STARLINK-5193,PAYLOAD,2024-04-29 10:19:58,15.08839966,0.0001264,53.2152,143.1047,88.3644,271.7493,0.00019235,2.775e-05,0.0,0 STARLINK-5193,1 54095U 22136AW  24120.43053693  .00002775  00000-0  19235-3 0  9993,2 54095  53.2152 143.1047 0001264  88.3644 271.7493 15.08839966 84919,6917.88,95.438,540.62,538.871,0.0
54095.0,STARLINK-5193,PAYLOAD,2024-04-30 08:35:22,15.08845304,0.0001298,53.2153,138.9418,80.3149,279.799,0.00031139,4.672e-05,0.0,0 STARLINK-5193,1 54095U 22136AW  24121.35789733  .00004672  00000-0  31139-3 0  9991,2 54095  53.2153 138.9418 0001298  80.3149 279.7990 15.08845304 84589,6917.864,95.437,540.627,538.831,0.0
54095.0,STARLINK-5193,PAYLOAD,2024-04-30 18:07:40,15.08848969,0.0001283,53.2151,137.1576,82.39,277.7238,0.00027005,4.014e-05,0.0,0 STARLINK-5193,1 54095U 22136AW  24121.75533488  .00004014  00000-0  27005-3 0  9996,2 54095  53.2151 137.1576 0001283  82.3900 277.7238 15.08848969 85117,6917.853,95.437,540.606,538.83,0.0
54095.0,STARLINK-5193,PAYLOAD,2024-05-01 10:01:32,15.08851573,0.0001344,53.2154,134.1843,82.3831,277.7314,0.00023341,3.43e-05,0.0,0 STARLINK-5193,1 54095U 22136AW  24122.41773198  .00003430  00000-0  23341-3 0  9994,2 54095  53.2154 134.1843 0001344  82.3831 277.7314 15.08851573 84743,6917.845,95.437,540.64,538.78,0.0
54095.0,STARLINK-5193,PAYLOAD,2024-05-01 17:58:27,15.08847411,0.0001352,53.2155,132.6978,82.4708,277.6438,0.00013291,1.828e-05,0.0,0 STARLINK-5193,1 54095U 22136AW  24122.74893222  .00001828  00000-0  13291-3 0  9993,2 54095  53.2155 132.6978 0001352  82.4708 277.6438 15.08847411 85269,6917.858,95.437,540.658,538.787,0.0
54095.0,STARLINK-5193,PAYLOAD,2024-05-02 09:52:19,15.08845069,0.0001367,53.216,129.7236,85.4743,274.6405,6.9396e-05,8.17e-06,0.0,0 STARLINK-5193,1 54095U 22136AW  24123.41133505  .00000817  00000-0  69396-4 0  9994,2 54095  53.2160 129.7236 0001367  85.4743 274.6405 15.08845069 85366,6917.865,95.437,540.676,538.784,0.0
54095.0,STARLINK-5193,PAYLOAD,2024-05-03 04:56:57,15.0884048,0.0001421,53.2151,126.1548,85.3603,274.7551,1.575e-05,-3.7e-07,0.0,0 STARLINK-5193,1 54095U 22136AW  24124.20621730 -.00000037  00000-0  15750-4 0  9994,2 54095  53.2151 126.1548 0001421  85.3603 274.7551 15.08840480 85486,6917.879,95.438,540.727,538.761,0.0
54095.0,STARLINK-5193,PAYLOAD,2024-05-03 09:43:06,15.08840977,0.0001389,53.2156,125.2615,90.6088,269.5063,3.4409e-05,2.6e-06,0.0,0 STARLINK-5193,1 54095U 22136AW  24124.40493572  .00000260  00000-0  34409-4 0  9996,2 54095  53.2156 125.2615 0001389  90.6088 269.5063 15.08840977 85048,6917.877,95.437,540.703,538.782,0.0
54095.0,STARLINK-5193,PAYLOAD,2024-05-04 06:23:07,15.08836571,0.000137,53.2156,121.3951,92.052,268.0629,3.9548e-05,3.41e-06,0.0,0 STARLINK-5193,1 54095U 22136AW  24125.26605944  .00000341  00000-0  39548-4 0  9998,2 54095  53.2156 121.3951 0001370  92.0520 268.0629 15.08836571 85648,6917.891,95.438,540.704,538.808,0.0
54095.0,STARLINK-5193,PAYLOAD,2024-05-05 09:24:40,15.08843477,0.0001372,53.2163,116.3399,93.4283,266.6866,0.00010245,1.343e-05,0.0,0 STARLINK-5193,1 54095U 22136AW  24126.39213503  .00001343  00000-0  10245-3 0  9994,2 54095  53.2163 116.3399 0001372  93.4283 266.6866 15.08843477 85818,6917.87,95.437,540.684,538.786,0.0
54095.0,STARLINK-5193,PAYLOAD,2024-05-06 04:29:18,15.08837888,0.0001377,53.217,112.77,95.0627,265.0522,4.4506e-05,4.2e-06,0.0,0 STARLINK-5193,1 54095U 22136AW  24127.18702164  .00000420  00000-0  44506-4 0  9991,2 54095  53.2170 112.7700 0001377  95.0627 265.0522 15.08837888 85931,6917.887,95.438,540.704,538.799,0.0
54095.0,STARLINK-5193,PAYLOAD,2024-05-06 06:04:41,15.08839654,0.0001341,53.2171,112.4761,91.8682,268.2464,4.9233e-05,4.96e-06,0.0,0 STARLINK-5193,1 54095U 22136AW  24127.25326088  .00000496  00000-0  49233-4 0  9991,2 54095  53.2171 112.4761 0001341  91.8682 268.2464 15.08839654 85474,6917.881,95.438,540.674,538.819,0.0
54095.0,STARLINK-5193,PAYLOAD,2024-05-06 15:37:00,15.08840576,0.0001348,53.2173,110.6921,91.6748,268.4398,5.2233e-05,5.43e-06,0.0,0 STARLINK-5193,1 54095U 22136AW  24127.65070081  .00000543  00000-0  52233-4 0  9991,2 54095  53.2173 110.6921 0001348  91.6748 268.4398 15.08840576 85532,6917.879,95.438,540.676,538.811,0.0
54095.0,STARLINK-5193,PAYLOAD,2024-05-07 05:55:28,15.08845823,0.0001528,53.2173,108.0165,112.7698,247.3456,7.8058e-05,9.55e-06,0.0,0 STARLINK-5193,1 54095U 22136AW  24128.24685620  .00000955  00000-0  78058-4 0  9998,2 54095  53.2173 108.0165 0001528 112.7698 247.3456 15.08845823 86095,6917.863,95.437,540.785,538.671,0.0
54095.0,STARLINK-5193,PAYLOAD,2024-05-07 09:06:14,15.08847128,0.0001488,53.2174,107.4212,108.915,251.2004,0.00010753,1.424e-05,0.0,0 STARLINK-5193,1 54095U 22136AW  24128.37933461  .00001424  00000-0  10753-3 0  9990,2 54095  53.2174 107.4212 0001488 108.9150 251.2004 15.08847128 85640,6917.859,95.437,540.753,538.694,0.0
54095.0,STARLINK-5193,PAYLOAD,2024-05-07 15:27:47,15.08836967,0.0001564,53.2172,106.2297,106.6411,253.4753,4.3714e-05,4.08e-06,0.0,0 STARLINK-5193,1 54095U 22136AW  24128.64430238  .00000408  00000-0  43714-4 0  9999,2 54095  53.2172 106.2297 0001564 106.6411 253.4753 15.08836967 86159,6917.89,95.438,540.837,538.673,0.0
54095.0,STARLINK-5193,PAYLOAD,2024-05-08 07:21:39,15.08839451,0.0001368,53.2175,103.2569,88.8233,271.2916,5.6484e-05,6.11e-06,0.0,0 STARLINK-5193,1 54095U 22136AW  24129.30670313  .00000611  00000-0  56484-4 0  9997,2 54095  53.2175 103.2569 0001368  88.8233 271.2916 15.08839451 85784,6917.882,95.438,540.693,538.801,0.0
54095.0,STARLINK-5193,PAYLOAD,2024-05-08 15:18:35,15.08836928,0.0001301,53.2173,101.7707,92.1471,267.967,3.1425e-05,2.12e-06,0.0,0 STARLINK-5193,1 54095U 22136AW  24129.63790570  .00000212  00000-0  31425-4 0  9996,2 54095  53.2173 101.7707 0001301  92.1471 267.9670 15.08836928 85839,6917.89,95.438,540.655,538.855,0.0
54095.0,STARLINK-5193,PAYLOAD,2024-05-09 05:37:02,15.08845557,0.0001459,53.2176,99.0937,97.8298,262.286,1.6226e-05,-3e-07,0.0,0 STARLINK-5193,1 54095U 22136AW  24130.23406151 -.00000030  00000-0  16226-4 0  9994,2 54095  53.2176  99.0937 0001459  97.8298 262.2860 15.08845557 86398,6917.863,95.437,540.738,538.719,0.0
54095.0,STARLINK-5193,PAYLOAD,2024-05-09 15:09:21,15.08842071,0.000128,53.2175,97.3091,86.9805,273.1334,3.4737e-05,2.65e-06,0.0,0 STARLINK-5193,1 54095U 22136AW  24130.63150387  .00000265  00000-0  34737-4 0  9991,2 54095  53.2175  97.3091 0001280  86.9805 273.1334 15.08842071 85983,6917.874,95.437,540.625,538.854,0.0
54095.0,STARLINK-5193,PAYLOAD,2024-05-10 03:52:26,15.08846144,0.0001188,53.2164,94.9302,102.1935,257.919,9.3896e-05,1.207e-05,0.0,0 STARLINK-5193,1 54095U 22136AW  24131.16142175  .00001207  00000-0  93896-4 0  9994,2 54095  53.2164  94.9302 0001188 102.1935 257.9190 15.08846144 86066,6917.862,95.437,540.548,538.905,0.0
54095.0,STARLINK-5193,PAYLOAD,2024-05-10 15:00:08,15.08846577,0.0001213,53.2166,92.8496,96.8062,263.3068,0.00013258,1.823e-05,0.0,0 STARLINK-5193,1 54095U 22136AW  24131.62510080  .00001823  00000-0  13258-3 0  9996,2 54095  53.2166  92.8496 0001213  96.8062 263.3068 15.08846577 86603,6917.86,95.437,540.564,538.886,0.0
54095.0,STARLINK-5193,PAYLOAD,2024-05-11 03:43:11,15.08874695,0.0001301,53.2167,90.4717,100.3155,259.7984,0.00035521,5.375e-05,0.0,0 STARLINK-5193,1 54095U 22136AW  24132.15499964  .00005375  00000-0  35521-3 0  9995,2 54095  53.2167  90.4717 0001301 100.3155 259.7984 15.08874695 86682,6917.774,95.435,540.539,538.739,0.0
54095.0,STARLINK-5193,PAYLOAD,2024-05-12 03:34:01,15.08796242,8.21e-05,53.2161,86.0108,103.1161,256.9923,-0.00098628,-0.00015931,0.0,0 STARLINK-5193,1 54095U 22136AW  24133.14862729 -.00015931  00000-0 -98628-3 0  9996,2 54095  53.2161  86.0108 0000821 103.1161 256.9923 15.08796242 86835,6918.014,95.44,540.447,539.311,0.0
54095.0,STARLINK-5193,PAYLOAD,2024-05-12 06:44:48,15.0879313,0.0001026,53.2168,85.4159,100.4891,259.6217,-0.00097637,-0.00015773,0.0,0 STARLINK-5193,1 54095U 22136AW  24133.28111275 -.00015773  00000-0 -97637-3 0  9997,2 54095  53.2168  85.4159 0001026 100.4891 259.6217 15.08793130 86388,6918.024,95.441,540.598,539.179,0.0
54095.0,STARLINK-5193,PAYLOAD,2024-05-13 03:24:50,15.08837152,0.0001691,53.2171,81.5506,63.7619,296.3547,0.00024964,3.687e-05,0.0,0 STARLINK-5193,1 54095U 22136AW  24134.14224744  .00003687  00000-0  24964-3 0  9991,2 54095  53.2171  81.5506 0001691  63.7619 296.3547 15.08837152 86985,6917.889,95.438,540.924,538.584,0.0
54095.0,STARLINK-5193,PAYLOAD,2024-05-13 12:57:08,15.08842876,0.0001452,53.2176,79.7672,73.0064,287.1087,0.00044459,6.795e-05,0.0,0 STARLINK-5193,1 54095U 22136AW  24134.53968680  .00006795  00000-0  44459-3 0  9992,2 54095  53.2176  79.7672 0001452  73.0064 287.1087 15.08842876 86577,6917.872,95.437,540.741,538.732,0.0
54095.0,STARLINK-5193,PAYLOAD,2024-05-14 12:47:55,15.08849501,9.4e-05,53.2169,75.3052,94.2709,265.8391,0.00076914,0.00011977,0.0,0 STARLINK-5193,1 54095U 22136AW  24135.53327883  .00011977  00000-0  76914-3 0  9996,2 54095  53.2169  75.3052 0000940  94.2709 265.8391 15.08849501 87197,6917.851,95.437,540.367,539.066,0.0
54095.0,STARLINK-5193,PAYLOAD,2024-05-15 03:06:22,15.08858481,0.0001151,53.2165,72.6308,94.9252,265.1872,1.3816e-05,-6.8e-07,0.0,0 STARLINK-5193,1 54095U 22136AW  24136.12942892 -.00000068  00000-0  13816-4 0  9998,2 54095  53.2165  72.6308 0001151  94.9252 265.1872 15.08858481 86814,6917.824,95.436,540.485,538.893,0.0
54095.0,STARLINK-5193,PAYLOAD,2024-05-16 02:57:09,15.08851433,0.0001321,53.2174,68.169,80.7761,279.338,6.0638e-05,6.78e-06,0.0,0 STARLINK-5193,1 54095U 22136AW  24137.12302742  .00000678  00000-0  60638-4 0  9993,2 54095  53.2174  68.1690 0001321  80.7761 279.3380 15.08851433 87435,6917.845,95.437,540.624,538.797,0.0
